{"type": "FeatureCollection", "features": [ {"type": "Feature", "properties": {"norad_id": 37216, "name": "COSMO-SKYMED 4", "group": "resource", "lat": 78.75483776196255, "lon": 136.4586216881188, "alt_km": 614.2280584121854, "timestamp": "2025-12-25T11:37:44.078499+00:00", "meta": {"OBJECT_NAME": "COSMO-SKYMED 4", "OBJECT_ID": "2010-060A", "EPOCH": "2025-12-25T04:46:46.557408", "MEAN_MOTION": 14.82159069, "ECCENTRICITY": 0.0001362, "INCLINATION": 97.8804, "RA_OF_ASC_NODE": 180.3345, "ARG_OF_PERICENTER": 82.2826, "MEAN_ANOMALY": 277.8541, "EPHEMERIS_TYPE": 0, "CLASSIFICATION_TYPE": "U", "NORAD_CAT_ID": 37216, "ELEMENT_SET_NO": 999, "REV_AT_EPOCH": 81879, "BSTAR": 9.1953e-05, "MEAN_MOTION_DOT": 6.8e-06, "MEAN_MOTION_DDOT": 0}, "tle": {"line1": "1 37216U 10060A   25359.19914997  .00000680  00000+0  91953-4 0  9993", "line2": "2 37216  97.8804 180.3345 0001362  82.2826 277.8541 14.82159069818793"}}, "geometry": {"type": "Point", "coordinates": [136.4586216881188, 78.75483776196255]}}, {"type": "Feature", "properties": {"norad_id": 37387, "name": "RESOURCESAT-2", "group": "resource", "lat": 26.112638987622972, "lon": -112.6742129216683, "alt_km": 822.4309054114483, "timestamp": "2025-12-25T11:37:44.078511+00:00", "meta": {"OBJECT_NAME": "RESOURCESAT-2", "OBJECT_ID": "2011-015A", "EPOCH": "2025-12-25T02:27:49.398912", "MEAN_MOTION": 14.2160197, "ECCENTRICITY": 0.0005814, "INCLINATION": 98.786, "RA_OF_ASC_NODE": 62.5981, "ARG_OF_PERICENTER": 8.7512, "MEAN_ANOMALY": 351.3765, "EPHEMERIS_TYPE": 0, "CLASSIFICATION_TYPE": "U", "NORAD_CAT_ID": 37387, "ELEMENT_SET_NO": 999, "REV_AT_EPOCH": 76144, "BSTAR": 8.1916e-05, "MEAN_MOTION_DOT": 1.35e-06, "MEAN_MOTION_DDOT": 0}, "tle": {"line1": "1 37387U 11015A   25359.10265508  .00000135  00000+0  81916-4 0  9994", "line2": "2 37387  98.7860  62.5981 0005814   8.7512 351.3765 14.21601970761443"}}, "geometry": {"type": "Point", "coordinates": [-112.6742129216683, 26.112638987622972]}}, {"type": "Feature", "properties": {"norad_id": 37781, "name": "HAIYANG-2A", "group": "resource", "lat": 41.54428658756392, "lon": -8.160969085679216, "alt_km": 963.5063715382448, "timestamp": "2025-12-25T11:37:44.078521+00:00", "meta": {"OBJECT_NAME": "HAIYANG-2A", "OBJECT_ID": "2011-043A", "EPOCH": "2025-12-25T04:27:31.478400", "MEAN_MOTION": 13.78837016, "ECCENTRICITY": 0.0001598, "INCLINATION": 99.3378, "RA_OF_ASC_NODE": 359.9282, "ARG_OF_PERICENTER": 67.6887, "MEAN_ANOMALY": 292.4434, "EPHEMERIS_TYPE": 0, "CLASSIFICATION_TYPE": "U", "NORAD_CAT_ID": 37781, "ELEMENT_SET_NO": 999, "REV_AT_EPOCH": 72270, "BSTAR": 0.00023287, "MEAN_MOTION_DOT": 1.93e-06, "MEAN_MOTION_DDOT": 0}, "tle": {"line1": "1 37781U 11043A   25359.18578100  .00000193  00000+0  23287-3 0  9996", "line2": "2 37781  99.3378 359.9282 0001598  67.6887 292.4434 13.78837016722700"}}, "geometry": {"type": "Point", "coordinates": [-8.160969085679216, 41.54428658756392]}}, {"type": "Feature", "properties": {"norad_id": 37791, "name": "RASAT", "group": "resource", "lat": -77.79385313042005, "lon": 129.50413307218926, "alt_km": 679.4475797358864, "timestamp": "2025-12-25T11:37:44.078531+00:00", "meta": {"OBJECT_NAME": "RASAT", "OBJECT_ID": "2011-044D", "EPOCH": "2025-12-25T05:43:33.598848", "MEAN_MOTION": 14.67926365, "ECCENTRICITY": 0.0021277, "INCLINATION": 98.0643, "RA_OF_ASC_NODE": 88.3106, "ARG_OF_PERICENTER": 27.2424, "MEAN_ANOMALY": 33.224, "EPHEMERIS_TYPE": 0, "CLASSIFICATION_TYPE": "U", "NORAD_CAT_ID": 37791, "ELEMENT_SET_NO": 999, "REV_AT_EPOCH": 76766, "BSTAR": 0.00013547, "MEAN_MOTION_DOT": 7.28e-06, "MEAN_MOTION_DDOT": 0}, "tle": {"line1": "1 37791U 11044D   25359.23858332  .00000728  00000+0  13547-3 0  9994", "line2": "2 37791  98.0643  88.3106 0021277  27.2424  33.2240 14.67926365767660"}}, "geometry": {"type": "Point", "coordinates": [129.50413307218926, -77.79385313042005]}}, {"type": "Feature", "properties": {"norad_id": 37841, "name": "SRMSAT", "group": "resource", "lat": 1.0820567149631404, "lon": -152.15915040155997, "alt_km": 850.7941646235331, "timestamp": "2025-12-25T11:37:44.078541+00:00", "meta": {"OBJECT_NAME": "SRMSAT", "OBJECT_ID": "2011-058D", "EPOCH": "2025-12-24T18:34:49.624608", "MEAN_MOTION": 14.11515378, "ECCENTRICITY": 0.00119944, "INCLINATION": 19.973, "RA_OF_ASC_NODE": 35.1176, "ARG_OF_PERICENTER": 85.055, "MEAN_ANOMALY": 74.1634, "EPHEMERIS_TYPE": 0, "CLASSIFICATION_TYPE": "U", "NORAD_CAT_ID": 37841, "ELEMENT_SET_NO": 999, "REV_AT_EPOCH": 73314, "BSTAR": 8.7140631e-05, "MEAN_MOTION_DOT": 4.25e-06, "MEAN_MOTION_DDOT": 0}, "tle": {"line1": "1 37841U 11058D   25358.77418547  .00000425  00000+0  87141-4 0  9999", "line2": "2 37841  19.9730  35.1176 0011994  85.0550  74.1634 14.11515378733143"}}, "geometry": {"type": "Point", "coordinates": [-152.15915040155997, 1.0820567149631404]}}, {"type": "Feature", "properties": {"norad_id": 38012, "name": "PLEIADES 1A", "group": "resource", "lat": 6.06732087895305, "lon": 71.17959599315677, "alt_km": 699.6857872221362, "timestamp": "2025-12-25T11:37:44.078552+00:00", "meta": {"OBJECT_NAME": "PLEIADES 1A", "OBJECT_ID": "2011-076F", "EPOCH": "2025-12-25T05:18:30.807360", "MEAN_MOTION": 14.58572348, "ECCENTRICITY": 0.000106, "INCLINATION": 98.1807, "RA_OF_ASC_NODE": 71.7965, "ARG_OF_PERICENTER": 76.8514, "MEAN_ANOMALY": 347.4237, "EPHEMERIS_TYPE": 0, "CLASSIFICATION_TYPE": "U", "NORAD_CAT_ID": 38012, "ELEMENT_SET_NO": 999, "REV_AT_EPOCH": 74663, "BSTAR": 8.4296e-05, "MEAN_MOTION_DOT": 3.46e-06, "MEAN_MOTION_DDOT": 0}, "tle": {"line1": "1 38012U 11076F   25359.22118990  .00000346  00000+0  84296-4 0  9990", "line2": "2 38012  98.1807  71.7965 0001060  76.8514 347.4237 14.58572348746635"}}, "geometry": {"type": "Point", "coordinates": [71.17959599315677, 6.06732087895305]}}, {"type": "Feature", "properties": {"norad_id": 38038, "name": "ZIYUAN 1-02C (ZY 1-02C)", "group": "resource", "lat": 51.8958560269445, "lon": 54.360068382454855, "alt_km": 756.895366439443, "timestamp": "2025-12-25T11:37:44.078562+00:00", "meta": {"OBJECT_NAME": "ZIYUAN 1-02C (ZY 1-02C)", "OBJECT_ID": "2011-079A", "EPOCH": "2025-12-25T05:08:15.313632", "MEAN_MOTION": 14.38025418, "ECCENTRICITY": 0.0007555, "INCLINATION": 98.4314, "RA_OF_ASC_NODE": 64.997, "ARG_OF_PERICENTER": 106.0683, "MEAN_ANOMALY": 347.3743, "EPHEMERIS_TYPE": 0, "CLASSIFICATION_TYPE": "U", "NORAD_CAT_ID": 38038, "ELEMENT_SET_NO": 999, "REV_AT_EPOCH": 73420, "BSTAR": 0.00014674, "MEAN_MOTION_DOT": 4.01e-06, "MEAN_MOTION_DDOT": 0}, "tle": {"line1": "1 38038U 11079A   25359.21406613  .00000401  00000+0  14674-3 0  9996", "line2": "2 38038  98.4314  64.9970 0007555 106.0683 347.3743 14.38025418734207"}}, "geometry": {"type": "Point", "coordinates": [54.360068382454855, 51.8958560269445]}}, {"type": "Feature", "properties": {"norad_id": 38338, "name": "ARIRANG-3 (KOMPSAT-3)", "group": "resource", "lat": 47.635188248793625, "lon": -55.078209454859405, "alt_km": 684.775517110571, "timestamp": "2025-12-25T11:37:44.078572+00:00", "meta": {"OBJECT_NAME": "ARIRANG-3 (KOMPSAT-3)", "OBJECT_ID": "2012-025B", "EPOCH": "2025-12-25T04:50:13.903584", "MEAN_MOTION": 14.61728443, "ECCENTRICITY": 0.0004692, "INCLINATION": 98.334, "RA_OF_ASC_NODE": 313.886, "ARG_OF_PERICENTER": 293.8663, "MEAN_ANOMALY": 66.2046, "EPHEMERIS_TYPE": 0, "CLASSIFICATION_TYPE": "U", "NORAD_CAT_ID": 38338, "ELEMENT_SET_NO": 999, "REV_AT_EPOCH": 72592, "BSTAR": 0.00012952, "MEAN_MOTION_DOT": 5.97e-06, "MEAN_MOTION_DDOT": 0}, "tle": {"line1": "1 38338U 12025B   25359.20154981  .00000597  00000+0  12952-3 0  9991", "line2": "2 38338  98.3340 313.8860 0004692 293.8663  66.2046 14.61728443725920"}}, "geometry": {"type": "Point", "coordinates": [-55.078209454859405, 47.635188248793625]}}, {"type": "Feature", "properties": {"norad_id": 38709, "name": "EXACTVIEW-1 (ADS-1B)", "group": "resource", "lat": 19.496141786449627, "lon": -68.65472497038733, "alt_km": 815.5140503676312, "timestamp": "2025-12-25T11:37:44.078582+00:00", "meta": {"OBJECT_NAME": "EXACTVIEW-1 (ADS-1B)", "OBJECT_ID": "2012-039C", "EPOCH": "2025-12-24T19:42:42.645024", "MEAN_MOTION": 14.2491263, "ECCENTRICITY": 0.00101426, "INCLINATION": 98.9638, "RA_OF_ASC_NODE": 107.4649, "ARG_OF_PERICENTER": 317.9424, "MEAN_ANOMALY": 42.0975, "EPHEMERIS_TYPE": 0, "CLASSIFICATION_TYPE": "U", "NORAD_CAT_ID": 38709, "ELEMENT_SET_NO": 999, "REV_AT_EPOCH": 69787, "BSTAR": 8.4450506e-05, "MEAN_MOTION_DOT": 1.51e-06, "MEAN_MOTION_DDOT": 0}, "tle": {"line1": "1 38709U 12039C   25358.82132691  .00000151  00000+0  84451-4 0  9999", "line2": "2 38709  98.9638 107.4649 0010142 317.9424  42.0975 14.24912630697877"}}, "geometry": {"type": "Point", "coordinates": [-68.65472497038733, 19.496141786449627]}}, {"type": "Feature", "properties": {"norad_id": 38755, "name": "SPOT 6", "group": "resource", "lat": -68.95068557478432, "lon": 85.90977677630555, "alt_km": 705.891528031596, "timestamp": "2025-12-25T11:37:44.078591+00:00", "meta": {"OBJECT_NAME": "SPOT 6", "OBJECT_ID": "2012-047A", "EPOCH": "2025-12-25T03:43:10.504416", "MEAN_MOTION": 14.58542649, "ECCENTRICITY": 0.0001242, "INCLINATION": 98.1553, "RA_OF_ASC_NODE": 63.7096, "ARG_OF_PERICENTER": 78.5049, "MEAN_ANOMALY": 281.629, "EPHEMERIS_TYPE": 0, "CLASSIFICATION_TYPE": "U", "NORAD_CAT_ID": 38755, "ELEMENT_SET_NO": 999, "REV_AT_EPOCH": 70768, "BSTAR": 7.4836e-05, "MEAN_MOTION_DOT": 3.03e-06, "MEAN_MOTION_DDOT": 0}, "tle": {"line1": "1 38755U 12047A   25359.15498269  .00000303  00000+0  74836-4 0  9997", "line2": "2 38755  98.1553  63.7096 0001242  78.5049 281.6290 14.58542649707688"}}, "geometry": {"type": "Point", "coordinates": [85.90977677630555, -68.95068557478432]}}]}